OBJECT_NAME,OBJECT_ID,EPOCH,MEAN_MOTION,ECCENTRICITY,INCLINATION,RA_OF_ASC_NODE,ARG_OF_PERICENTER,MEAN_ANOMALY,EPHEMERIS_TYPE,CLASSIFICATION_TYPE,NORAD_CAT_ID,ELEMENT_SET_NO,REV_AT_EPOCH,BSTAR,MEAN_MOTION_DOT,MEAN_MOTION_DDOT
TIANMU-1 20,2023-208B,2026-06-13T14:28:59.076192,15.32715063,.0006311,97.4443,281.5164,348.4065,11.7031,0,U,58661,999,13687,.27046253E-3,.8471E-4,0
TIANMU-1 21,2023-208C,2026-06-13T14:19:57.102816,15.35018482,.0006228,97.4502,284.1752,339.0199,21.0787,0,U,58662,999,13701,.28699035E-3,.9676E-4,0
TIANMU-1 22,2023-208D,2026-06-13T14:36:39.642624,15.31012264,.00035687,97.4498,280.8292,17.2907,342.8455,0,U,58663,999,13678,.27117584E-3,.8049E-4,0
TIANMU-1 15,2024-004A,2026-06-13T15:00:48.662208,15.26990078,.00070567,97.4663,350.8157,14.8307,345.3137,0,U,58700,999,13523,.21629053E-3,.5658E-4,0
TIANMU-1 16,2024-004B,2026-06-13T14:44:23.265888,15.26715018,.00061914,97.4609,350.0451,20.0583,340.0898,0,U,58701,999,13523,.2220273E-3,.5761E-4,0
TIANMU-1 17,2024-004C,2026-06-13T15:57:49.129344,15.26715073,.00058636,97.4637,350.5798,26.0858,334.0675,0,U,58702,999,13523,.22876213E-3,.5938E-4,0
TIANMU-1 18,2024-004D,2026-06-13T15:24:40.470912,15.26973099,.000437,97.4653,350.8100,26.5900,333.5562,0,U,58703,999,13523,.21605287E-3,.5647E-4,0
INSAT-3DS,2024-033A,2026-06-13T15:15:16.799904,1.00271778,.00010053,0.0432,129.0798,305.7541,138.0330,0,U,58990,999,4703,0,-.145E-5,0
METEOR-M2 4,2024-039A,2026-06-13T14:18:13.422816,14.22429231,.00070922,98.7009,123.9392,171.0159,189.1147,0,U,59051,999,11875,.20573608E-4,.2E-7,0
GOES 19,2024-119A,2026-06-13T14:30:22.001184,1.00270059,.00004989,0.0072,95.7140,78.4184,230.1848,0,U,60133,999,692,0,-.237E-5,0
MTG-S1,2025-143A,2026-06-13T14:50:53.216736,1.00271674,.00009795,0.6064,338.0997,12.6084,130.4708,0,U,64723,999,338,0,-.2E-6,0
METOP-SGA1,2025-172A,2026-06-13T14:51:54.273888,14.21509220,.00009292,98.6645,224.4122,90.9445,269.1839,0,U,65159,999,4328,.38288557E-4,.4E-6,0
FENGYUN 3H,2025-219A,2026-06-13T14:07:01.463232,14.19919851,.00016098,98.6768,105.4273,78.8976,281.2382,0,U,65815,999,3687,.38598122E-4,.39E-6,0
