TIANMU-1 20             
1 58661U 23208B   26164.60346153  .00008471  00000+0  27046-3 0  9999
2 58661  97.4443 281.5164 0006311 348.4065  11.7031 15.32715063136878
TIANMU-1 21             
1 58662U 23208C   26164.59718869  .00009676  00000+0  28699-3 0  9998
2 58662  97.4502 284.1752 0006228 339.0199  21.0787 15.35018482137011
TIANMU-1 22             
1 58663U 23208D   26164.60879216  .00008049  00000+0  27118-3 0  9993
2 58663  97.4498 280.8292 0003568  17.2907 342.8455 15.31012264136781
TIANMU-1 15             
1 58700U 24004A   26164.62556322  .00005658  00000+0  21629-3 0  9996
2 58700  97.4663 350.8157 0007056  14.8307 345.3137 15.26990078135234
TIANMU-1 16             
1 58701U 24004B   26164.61415817  .00005761  00000+0  22203-3 0  9993
2 58701  97.4609 350.0451 0006191  20.0583 340.0898 15.26715018135233
TIANMU-1 17             
1 58702U 24004C   26164.66515196  .00005938  00000+0  22876-3 0  9992
2 58702  97.4637 350.5798 0005863  26.0858 334.0675 15.26715073135237
TIANMU-1 18             
1 58703U 24004D   26164.64213508  .00005647  00000+0  21605-3 0  9999
2 58703  97.4653 350.8100 0004370  26.5900 333.5562 15.26973099135234
INSAT-3DS               
1 58990U 24033A   26164.63561111 -.00000145  00000+0  00000+0 0  9995
2 58990   0.0432 129.0798 0001005 305.7541 138.0330  1.00271778 47034
METEOR-M2 4             
1 59051U 24039A   26164.59598869  .00000002  00000+0  20574-4 0  9999
2 59051  98.7009 123.9392 0007092 171.0159 189.1147 14.22429231118759
GOES 19                 
1 60133U 24119A   26164.60442131 -.00000237  00000+0  00000+0 0  9991
2 60133   0.0072  95.7140 0000498  78.4184 230.1848  1.00270059  6920
MTG-S1                  
1 64723U 25143A   26164.61867149 -.00000020  00000+0  00000+0 0  9999
2 64723   0.6064 338.0997 0000979  12.6084 130.4708  1.00271674  3380
METOP-SGA1              
1 65159U 25172A   26164.61937817  .00000040  00000+0  38289-4 0  9991
2 65159  98.6645 224.4122 0000929  90.9445 269.1839 14.21509220 43285
FENGYUN 3H              
1 65815U 25219A   26164.58821138  .00000039  00000+0  38598-4 0  9997
2 65815  98.6768 105.4273 0001609  78.8976 281.2382 14.19919851 36872
